{
  "type": "FeatureCollection",
  "features": [
    {
      "type": "Feature",
      "properties": {
        "norad_id": 64694,
        "name": "GOSAT-GW (IBUKI GW)",
        "group": "resource",
        "lat": 65.85827855411783,
        "lon": -82.160182636542,
        "alt_km": 661.4579772028646,
        "timestamp": "2025-12-26T23:26:41.811486+00:00",
        "meta_object_name": "GOSAT-GW (IBUKI GW)",
        "meta_object_id": "2025-141A",
        "meta_epoch": "2025-12-26T18:13:51.737376",
        "meta_mean_motion": 14.67563585,
        "meta_eccentricity": 0.0001423,
        "meta_inclination": 98.0441,
        "meta_ra_of_asc_node": 296.0194,
        "meta_arg_of_pericenter": 82.102,
        "meta_mean_anomaly": 278.0346,
        "meta_ephemeris_type": 0,
        "meta_classification_type": "U",
        "meta_norad_cat_id": 64694,
        "meta_element_set_no": 999,
        "meta_rev_at_epoch": 2655,
        "meta_bstar": 0.0002044,
        "meta_mean_motion_dot": 1.112e-05,
        "meta_mean_motion_ddot": 0,
        "tle_line1": "1 64694U 25141A   25360.75962659  .00001112  00000+0  20440-3 0  9994",
        "tle_line2": "2 64694  98.0441 296.0194 0001423  82.1020 278.0346 14.67563585 26559"
      },
      "geometry": {
        "type": "Point",
        "coordinates": [
          -82.160182636542,
          65.85827855411783
        ]
      }
    },
    {
      "type": "Feature",
      "properties": {
        "norad_id": 64876,
        "name": "IONOSFERA-M 3",
        "group": "resource",
        "lat": -49.06114589886569,
        "lon": 132.4176283044983,
        "alt_km": 828.5493094123003,
        "timestamp": "2025-12-26T23:26:41.811495+00:00",
        "meta_object_name": "IONOSFERA-M 3",
        "meta_object_id": "2025-155A",
        "meta_epoch": "2025-12-26T18:59:19.318848",
        "meta_mean_motion": 14.21444453,
        "meta_eccentricity": 0.0001778,
        "meta_inclination": 98.5802,
        "meta_ra_of_asc_node": 322.2609,
        "meta_arg_of_pericenter": 37.0679,
        "meta_mean_anomaly": 323.0621,
        "meta_ephemeris_type": 0,
        "meta_classification_type": "U",
        "meta_norad_cat_id": 64876,
        "meta_element_set_no": 999,
        "meta_rev_at_epoch": 2191,
        "meta_bstar": 6.5574e-05,
        "meta_mean_motion_dot": 1.01e-06,
        "meta_mean_motion_ddot": 0,
        "tle_line1": "1 64876U 25155A   25360.79119582  .00000101  00000+0  65574-4 0  9999",
        "tle_line2": "2 64876  98.5802 322.2609 0001778  37.0679 323.0621 14.21444453 21916"
      },
      "geometry": {
        "type": "Point",
        "coordinates": [
          132.4176283044983,
          -49.06114589886569
        ]
      }
    },
    {
      "type": "Feature",
      "properties": {
        "norad_id": 64877,
        "name": "IONOSFERA-M 4",
        "group": "resource",
        "lat": 49.61484856396848,
        "lon": -47.86303651223005,
        "alt_km": 815.0282879825472,
        "timestamp": "2025-12-26T23:26:41.811504+00:00",
        "meta_object_name": "IONOSFERA-M 4",
        "meta_object_id": "2025-155B",
        "meta_epoch": "2025-12-26T14:45:42.821280",
        "meta_mean_motion": 14.21445553,
        "meta_eccentricity": 0.00012368,
        "meta_inclination": 98.5802,
        "meta_ra_of_asc_node": 322.0091,
        "meta_arg_of_pericenter": 50.7642,
        "meta_mean_anomaly": 309.3646,
        "meta_ephemeris_type": 0,
        "meta_classification_type": "U",
        "meta_norad_cat_id": 64877,
        "meta_element_set_no": 999,
        "meta_rev_at_epoch": 2188,
        "meta_bstar": 6.4863124e-05,
        "meta_mean_motion_dot": 9.9e-07,
        "meta_mean_motion_ddot": 0,
        "tle_line1": "1 64877U 25155B   25360.61507895  .00000099  00000+0  64863-4 0  9995",
        "tle_line2": "2 64877  98.5802 322.0091 0001236  50.7642 309.3646 14.21445553 21883"
      },
      "geometry": {
        "type": "Point",
        "coordinates": [
          -47.86303651223005,
          49.61484856396848
        ]
      }
    },
    {
      "type": "Feature",
      "properties": {
        "norad_id": 64899,
        "name": "MICROCARB",
        "group": "resource",
        "lat": -80.29182756505233,
        "lon": 131.39215981994545,
        "alt_km": 674.1311609314507,
        "timestamp": "2025-12-26T23:26:41.811512+00:00",
        "meta_object_name": "MICROCARB",
        "meta_object_id": "2025-156A",
        "meta_epoch": "2025-12-26T10:46:43.165344",
        "meta_mean_motion": 14.72078872,
        "meta_eccentricity": 0.00176686,
        "meta_inclination": 98.0009,
        "meta_ra_of_asc_node": 75.5739,
        "meta_arg_of_pericenter": 103.7496,
        "meta_mean_anomaly": 256.5679,
        "meta_ephemeris_type": 0,
        "meta_classification_type": "U",
        "meta_norad_cat_id": 64899,
        "meta_element_set_no": 999,
        "meta_rev_at_epoch": 2255,
        "meta_bstar": 0.00012845891,
        "meta_mean_motion_dot": 7.6e-06,
        "meta_mean_motion_ddot": 0,
        "tle_line1": "1 64899U 25156A   25360.44911071  .00000760  00000+0  12846-3 0  9994",
        "tle_line2": "2 64899  98.0009  75.5739 0017668 103.7496 256.5679 14.72078872 22558"
      },
      "geometry": {
        "type": "Point",
        "coordinates": [
          131.39215981994545,
          -80.29182756505233
        ]
      }
    },
    {
      "type": "Feature",
      "properties": {
        "norad_id": 64900,
        "name": "CO3D 3",
        "group": "resource",
        "lat": -77.37192510425392,
        "lon": -138.51027516849564,
        "alt_km": 513.4675976036324,
        "timestamp": "2025-12-26T23:26:41.811522+00:00",
        "meta_object_name": "CO3D 3",
        "meta_object_id": "2025-156B",
        "meta_epoch": "2025-12-26T12:49:38.111232",
        "meta_mean_motion": 15.2020057,
        "meta_eccentricity": 0.00013033,
        "meta_inclination": 97.4343,
        "meta_ra_of_asc_node": 76.7033,
        "meta_arg_of_pericenter": 70.4568,
        "meta_mean_anomaly": 289.6808,
        "meta_ephemeris_type": 0,
        "meta_classification_type": "U",
        "meta_norad_cat_id": 64900,
        "meta_element_set_no": 999,
        "meta_rev_at_epoch": 2330,
        "meta_bstar": 1.9442844e-05,
        "meta_mean_motion_dot": 3.53e-06,
        "meta_mean_motion_ddot": 0,
        "tle_line1": "1 64900U 25156B   25360.53446888  .00000353  00000+0  19443-4 0  9995",
        "tle_line2": "2 64900  97.4343  76.7033 0001303  70.4568 289.6808 15.20200570 23305"
      },
      "geometry": {
        "type": "Point",
        "coordinates": [
          -138.51027516849564,
          -77.37192510425392
        ]
      }
    },
    {
      "type": "Feature",
      "properties": {
        "norad_id": 64901,
        "name": "CO3D 4",
        "group": "resource",
        "lat": -76.68314850377743,
        "lon": -136.33777819516078,
        "alt_km": 512.9448192597401,
        "timestamp": "2025-12-26T23:26:41.811530+00:00",
        "meta_object_name": "CO3D 4",
        "meta_object_id": "2025-156C",
        "meta_epoch": "2025-12-26T14:24:38.784960",
        "meta_mean_motion": 15.20199581,
        "meta_eccentricity": 0.00014178,
        "meta_inclination": 97.4337,
        "meta_ra_of_asc_node": 76.7688,
        "meta_arg_of_pericenter": 147.7595,
        "meta_mean_anomaly": 212.3727,
        "meta_ephemeris_type": 0,
        "meta_classification_type": "U",
        "meta_norad_cat_id": 64901,
        "meta_element_set_no": 999,
        "meta_rev_at_epoch": 2331,
        "meta_bstar": 0.00029085743,
        "meta_mean_motion_dot": 6.234e-05,
        "meta_mean_motion_ddot": 0,
        "tle_line1": "1 64901U 25156C   25360.60044890  .00006234  00000+0  29086-3 0  9998",
        "tle_line2": "2 64901  97.4337  76.7688 0001417 147.7595 212.3727 15.20199581 23312"
      },
      "geometry": {
        "type": "Point",
        "coordinates": [
          -136.33777819516078,
          -76.68314850377743
        ]
      }
    },
    {
      "type": "Feature",
      "properties": {
        "norad_id": 64902,
        "name": "CO3D 2",
        "group": "resource",
        "lat": 78.55084883471277,
        "lon": 36.895351221655886,
        "alt_km": 497.3763140076762,
        "timestamp": "2025-12-26T23:26:41.811539+00:00",
        "meta_object_name": "CO3D 2",
        "meta_object_id": "2025-156D",
        "meta_epoch": "2025-12-26T13:36:37.387296",
        "meta_mean_motion": 15.20205411,
        "meta_eccentricity": 8.063e-05,
        "meta_inclination": 97.4339,
        "meta_ra_of_asc_node": 76.6347,
        "meta_arg_of_pericenter": 62.3682,
        "meta_mean_anomaly": 297.7635,
        "meta_ephemeris_type": 0,
        "meta_classification_type": "U",
        "meta_norad_cat_id": 64902,
        "meta_element_set_no": 999,
        "meta_rev_at_epoch": 2330,
        "meta_bstar": 0.00022918838,
        "meta_mean_motion_dot": 4.898e-05,
        "meta_mean_motion_ddot": 0,
        "tle_line1": "1 64902U 25156D   25360.56709939  .00004898  00000+0  22919-3 0  9998",
        "tle_line2": "2 64902  97.4339  76.6347 0000806  62.3682 297.7635 15.20205411 23300"
      },
      "geometry": {
        "type": "Point",
        "coordinates": [
          36.895351221655886,
          78.55084883471277
        ]
      }
    }
  ]
}